{
"type": "FeatureCollection",
"name": "Subcuencas_geo",
"crs": { "type": "name", "properties": { "name": "urn:ogc:def:crs:OGC:1.3:CRS84" } },
"features": [
{ "type": "Feature", "properties": { "fid": 2, "id": "1", "Name": "Subcuenca Armería", "description": "Armería" }, "geometry": { "type": "MultiPolygon", "coordinates": [ [ [ [ -103.98441110592546, 19.61057506560531, 0.0 ], [ -103.975062, 19.607465, 0.0 ], [ -103.97503626632674, 19.607478050407039, 0.0 ], [ -103.974797, 19.607399, 0.0 ], [ -103.938966909974013, 19.624731033812221, 0.0 ], [ -103.934126, 19.626764, 0.0 ], [ -103.931662, 19.637969, 0.0 ], [ -103.919743, 19.638249, 0.0 ], [ -103.901883, 19.638666, 0.0 ], [ -103.898496677123291, 19.640994896936274, 0.0 ], [ -103.89098, 19.645862, 0.0 ], [ -103.877551333274823, 19.650744888643541, 0.0 ], [ -103.874041, 19.651963, 0.0 ], [ -103.869166624598037, 19.651708109118506, 0.0 ], [ -103.859591, 19.651132, 0.0 ], [ -103.846616934564722, 19.653446594948925, 0.0 ], [ -103.845452, 19.65363, 0.0 ], [ -103.82611, 19.657103, 0.0 ], [ -103.815771755689312, 19.660009451226546, 0.0 ], [ -103.792995871496458, 19.66437369811063, 0.0 ], [ -103.778223, 19.661296, 0.0 ], [ -103.76450397141879, 19.652384964577543, 0.0 ], [ -103.759699, 19.649104, 0.0 ], [ -103.749887927275708, 19.649877406111159, 0.0 ], [ -103.726001, 19.651457, 0.0 ], [ -103.717532188391431, 19.647446461339907, 0.0 ], [ -103.699094, 19.638526, 0.0 ], [ -103.688694, 19.64014, 0.0 ], [ -103.679708987589038, 19.621380052691496, 0.0 ], [ -103.676631, 19.614602, 0.0 ], [ -103.66834, 19.598447, 0.0 ], [ -103.655949, 19.585611, 0.0 ], [ -103.655867681434401, 19.585647818629401, 0.0 ], [ -103.655803, 19.585579, 0.0 ], [ -103.647988, 19.58901, 0.0 ], [ -103.626714, 19.581964, 0.0 ], [ -103.63473, 19.576199, 0.0 ], [ -103.634442, 19.569559, 0.0 ], [ -103.653043, 19.569676, 0.0 ], [ -103.649776, 19.567048, 0.0 ], [ -103.647273, 19.562048, 0.0 ], [ -103.647407, 19.551691, 0.0 ], [ -103.645354, 19.543357, 0.0 ], [ -103.655128, 19.54322, 0.0 ], [ -103.65933, 19.539725, 0.0 ], [ -103.652909, 19.537615, 0.0 ], [ -103.641627, 19.534418, 0.0 ], [ -103.641745, 19.528247, 0.0 ], [ -103.645084, 19.52193, 0.0 ], [ -103.645262, 19.513487, 0.0 ], [ -103.64542, 19.505016, 0.0 ], [ -103.649285, 19.500719, 0.0 ], [ -103.655438, 19.501025, 0.0 ], [ -103.660068, 19.500248, 0.0 ], [ -103.667393, 19.500898, 0.0 ], [ -103.672452, 19.497585, 0.0 ], [ -103.68014, 19.495453, 0.0 ], [ -103.685598, 19.493309, 0.0 ], [ -103.690285, 19.489112, 0.0 ], [ -103.693413, 19.486163, 0.0 ], [ -103.696625, 19.482376, 0.0 ], [ -103.701133, 19.479194, 0.0 ], [ -103.704805, 19.474975, 0.0 ], [ -103.708014, 19.469923, 0.0 ], [ -103.714844, 19.466461, 0.0 ], [ -103.715668, 19.459349, 0.0 ], [ -103.718117, 19.454077, 0.0 ], [ -103.724113, 19.451439, 0.0 ], [ -103.730941, 19.446061, 0.0 ], [ -103.737482, 19.443416, 0.0 ], [ -103.749605, 19.444837, 0.0 ], [ -103.752814, 19.443287, 0.0 ], [ -103.760434, 19.439346, 0.0 ], [ -103.766269, 19.435428, 0.0 ], [ -103.772334, 19.431286, 0.0 ], [ -103.777457, 19.430151, 0.0 ], [ -103.785791, 19.429091, 0.0 ], [ -103.792154, 19.426413, 0.0 ], [ -103.798256, 19.421419, 0.0 ], [ -103.805755, 19.41871, 0.0 ], [ -103.814292, 19.414223, 0.0 ], [ -103.817397, 19.412069, 0.0 ], [ -103.82155, 19.408976, 0.0 ], [ -103.821554, 19.416827, 0.0 ], [ -103.822739, 19.421617, 0.0 ], [ -103.823509, 19.426666, 0.0 ], [ -103.827312, 19.432831, 0.0 ], [ -103.824007, 19.435636, 0.0 ], [ -103.825808, 19.438088, 0.0 ], [ -103.833267, 19.439466, 0.0 ], [ -103.839427, 19.437663, 0.0 ], [ -103.842377, 19.435646, 0.0 ], [ -103.847042, 19.4325, 0.0 ], [ -103.851257, 19.43071, 0.0 ], [ -103.855315, 19.430103, 0.0 ], [ -103.859182, 19.434119, 0.0 ], [ -103.858757, 19.436494, 0.0 ], [ -103.862776, 19.442871, 0.0 ], [ -103.862651, 19.447082, 0.0 ], [ -103.869421, 19.44511, 0.0 ], [ -103.872086, 19.445048, 0.0 ], [ -103.875975, 19.441915, 0.0 ], [ -103.878622, 19.443553, 0.0 ], [ -103.879554, 19.446255, 0.0 ], [ -103.88279, 19.455594, 0.0 ], [ -103.890753, 19.463485, 0.0 ], [ -103.903056, 19.45721, 0.0 ], [ -103.907491, 19.452619, 0.0 ], [ -103.897291, 19.436756, 0.0 ], [ -103.899843, 19.434637, 0.0 ], [ -103.964626, 19.453484, 0.0 ], [ -103.97352, 19.464178, 0.0 ], [ -103.975563, 19.473457, 0.0 ], [ -103.975372, 19.480479, 0.0 ], [ -103.969467, 19.489782, 0.0 ], [ -103.963848, 19.492536, 0.0 ], [ -103.95666, 19.503986, 0.0 ], [ -103.958107, 19.510411, 0.0 ], [ -103.963141, 19.513111, 0.0 ], [ -103.968057, 19.523339, 0.0 ], [ -103.975015, 19.538126, 0.0 ], [ -103.976666, 19.543513, 0.0 ], [ -103.973371, 19.553685, 0.0 ], [ -103.97267, 19.563124, 0.0 ], [ -103.982546, 19.573855, 0.0 ], [ -103.980259, 19.587048, 0.0 ], [ -103.973392, 19.594152, 0.0 ], [ -103.99218, 19.596139, 0.0 ], [ -104.009789, 19.592103, 0.0 ], [ -104.007955, 19.598189, 0.0 ], [ -104.003832, 19.604487, 0.0 ], [ -104.007425, 19.606763, 0.0 ], [ -103.987719114979257, 19.611667736547712, 0.0 ], [ -103.98441110592546, 19.61057506560531, 0.0 ] ] ] ] } },
{ "type": "Feature", "properties": { "fid": 3, "id": "2", "Name": "Subcuenca Ayuquila", "description": "Ayuquila" }, "geometry": { "type": "MultiPolygon", "coordinates": [ [ [ [ -104.006328, 19.546606, 0.0 ], [ -104.018697, 19.548399, 0.0 ], [ -104.027154, 19.546619, 0.0 ], [ -104.026366, 19.531605, 0.0 ], [ -104.047493, 19.528316, 0.0 ], [ -104.052409, 19.518946, 0.0 ], [ -104.064951, 19.518759, 0.0 ], [ -104.08321, 19.527069, 0.0 ], [ -104.100772, 19.530138, 0.0 ], [ -104.113097, 19.536905, 0.0 ], [ -104.110641, 19.547174, 0.0 ], [ -104.124747, 19.544411, 0.0 ], [ -104.138361, 19.55502, 0.0 ], [ -104.158197, 19.553003, 0.0 ], [ -104.179645, 19.566041, 0.0 ], [ -104.205848, 19.551931, 0.0 ], [ -104.228641, 19.549332, 0.0 ], [ -104.242139, 19.56103, 0.0 ], [ -104.258768, 19.564222, 0.0 ], [ -104.267688, 19.581679, 0.0 ], [ -104.284815, 19.584832, 0.0 ], [ -104.300324, 19.59327, 0.0 ], [ -104.306187, 19.60713, 0.0 ], [ -104.311505, 19.614506, 0.0 ], [ -104.313363, 19.622642, 0.0 ], [ -104.322009, 19.625485, 0.0 ], [ -104.33102, 19.625166, 0.0 ], [ -104.339433, 19.639521, 0.0 ], [ -104.349176, 19.648021, 0.0 ], [ -104.356536, 19.651483, 0.0 ], [ -104.371983, 19.653564, 0.0 ], [ -104.379598, 19.657504, 0.0 ], [ -104.387628, 19.668968, 0.0 ], [ -104.393123, 19.680904, 0.0 ], [ -104.398842, 19.689636, 0.0 ], [ -104.393679, 19.696593, 0.0 ], [ -104.386948, 19.700775, 0.0 ], [ -104.384372, 19.709666, 0.0 ], [ -104.399814, 19.714625, 0.0 ], [ -104.40781, 19.716428, 0.0 ], [ -104.423083, 19.724573, 0.0 ], [ -104.431896, 19.727645, 0.0 ], [ -104.445211, 19.726057, 0.0 ], [ -104.460517, 19.742732, 0.0 ], [ -104.466963, 19.758345, 0.0 ], [ -104.472887, 19.772944, 0.0 ], [ -104.474884, 19.794494, 0.0 ], [ -104.476138, 19.810027, 0.0 ], [ -104.453161, 19.820636, 0.0 ], [ -104.439089, 19.823871, 0.0 ], [ -104.453839, 19.838438, 0.0 ], [ -104.45149, 19.855324, 0.0 ], [ -104.448573, 19.868952, 0.0 ], [ -104.441129, 19.87949, 0.0 ], [ -104.432028, 19.88289, 0.0 ], [ -104.424288, 19.883049, 0.0 ], [ -104.423091, 19.894335, 0.0 ], [ -104.416335, 19.906182, 0.0 ], [ -104.4118, 19.912332, 0.0 ], [ -104.395046, 19.914298, 0.0 ], [ -104.381914, 19.913815, 0.0 ], [ -104.37579, 19.918841, 0.0 ], [ -104.37534, 19.926458, 0.0 ], [ -104.378097, 19.937252, 0.0 ], [ -104.378156, 19.949443, 0.0 ], [ -104.37544, 19.960019, 0.0 ], [ -104.37661, 19.968149, 0.0 ], [ -104.361978, 19.972411, 0.0 ], [ -104.356587, 19.981382, 0.0 ], [ -104.343504, 19.987817, 0.0 ], [ -104.331867, 19.988404, 0.0 ], [ -104.321469, 19.988462, 0.0 ], [ -104.323164, 20.002662, 0.0 ], [ -104.321421, 20.02114, 0.0 ], [ -104.331348, 20.028615, 0.0 ], [ -104.335005, 20.036199, 0.0 ], [ -104.324795, 20.040051, 0.0 ], [ -104.319348, 20.045818, 0.0 ], [ -104.313494, 20.052803, 0.0 ], [ -104.305622, 20.067079, 0.0 ], [ -104.304151, 20.077991, 0.0 ], [ -104.291402, 20.085095, 0.0 ], [ -104.274279, 20.08667, 0.0 ], [ -104.270419, 20.104481, 0.0 ], [ -104.263312, 20.111505, 0.0 ], [ -104.245396, 20.117079, 0.0 ], [ -104.238387, 20.111944, 0.0 ], [ -104.230172, 20.107771, 0.0 ], [ -104.220923, 20.11672, 0.0 ], [ -104.211254, 20.124601, 0.0 ], [ -104.205892, 20.133611, 0.0 ], [ -104.187927, 20.136021, 0.0 ], [ -104.180861, 20.127291, 0.0 ], [ -104.178696, 20.10926, 0.0 ], [ -104.18358, 20.098294, 0.0 ], [ -104.186305, 20.08655, 0.0 ], [ -104.181298, 20.071664, 0.0 ], [ -104.1789, 20.058413, 0.0 ], [ -104.19356, 20.046063, 0.0 ], [ -104.19981, 20.039497, 0.0 ], [ -104.197304, 20.024251, 0.0 ], [ -104.18802, 20.018331, 0.0 ], [ -104.174503, 20.007639, 0.0 ], [ -104.16447, 19.990743, 0.0 ], [ -104.156967, 19.993378, 0.0 ], [ -104.147168, 19.985543, 0.0 ], [ -104.160816, 19.977185, 0.0 ], [ -104.162582, 19.963557, 0.0 ], [ -104.155837, 19.956609, 0.0 ], [ -104.149051, 19.947666, 0.0 ], [ -104.153468, 19.93962, 0.0 ], [ -104.168075, 19.944357, 0.0 ], [ -104.180648, 19.932535, 0.0 ], [ -104.179941, 19.923002, 0.0 ], [ -104.174511, 19.915579, 0.0 ], [ -104.180157, 19.904393, 0.0 ], [ -104.187729, 19.89719, 0.0 ], [ -104.181837, 19.886722, 0.0 ], [ -104.187676, 19.87806, 0.0 ], [ -104.176053, 19.864719, 0.0 ], [ -104.167624, 19.858905, 0.0 ], [ -104.165698, 19.84929, 0.0 ], [ -104.170979, 19.843118, 0.0 ], [ -104.178059, 19.827611, 0.0 ], [ -104.168856, 19.818593, 0.0 ], [ -104.168589, 19.809957, 0.0 ], [ -104.161147, 19.79888, 0.0 ], [ -104.157935, 19.791951, 0.0 ], [ -104.142353, 19.781013, 0.0 ], [ -104.141695, 19.766455, 0.0 ], [ -104.132394, 19.757055, 0.0 ], [ -104.11875, 19.760758, 0.0 ], [ -104.10954, 19.767738, 0.0 ], [ -104.100609, 19.769232, 0.0 ], [ -104.101746, 19.750444, 0.0 ], [ -104.109856, 19.746795, 0.0 ], [ -104.116702, 19.735571, 0.0 ], [ -104.119641, 19.727896, 0.0 ], [ -104.124036, 19.721172, 0.0 ], [ -104.1148, 19.716449, 0.0 ], [ -104.108616, 19.713366, 0.0 ], [ -104.093532, 19.711648, 0.0 ], [ -104.075512, 19.712054, 0.0 ], [ -104.07012, 19.707132, 0.0 ], [ -104.070206, 19.69851, 0.0 ], [ -104.078441, 19.691319, 0.0 ], [ -104.066902, 19.677905, 0.0 ], [ -104.058895, 19.68159, 0.0 ], [ -104.045596, 19.685919, 0.0 ], [ -104.035391, 19.686123, 0.0 ], [ -104.023783, 19.678774, 0.0 ], [ -104.018905, 19.669274, 0.0 ], [ -104.020735, 19.658133, 0.0 ], [ -104.01395, 19.648715, 0.0 ], [ -104.017559, 19.632919, 0.0 ], [ -104.007311, 19.626505, 0.0 ], [ -104.007425, 19.606763, 0.0 ], [ -104.003832, 19.604487, 0.0 ], [ -104.007955, 19.598189, 0.0 ], [ -104.009789, 19.592103, 0.0 ], [ -103.992564, 19.595924, 0.0 ], [ -103.973392, 19.594152, 0.0 ], [ -103.980259, 19.587048, 0.0 ], [ -103.982709, 19.573797, 0.0 ], [ -103.97267, 19.563124, 0.0 ], [ -103.973373, 19.553701, 0.0 ], [ -103.976666, 19.543513, 0.0 ], [ -103.993912, 19.542068, 0.0 ], [ -104.006328, 19.546606, 0.0 ] ] ] ] } },
{ "type": "Feature", "properties": { "fid": 4, "id": "3", "Name": "Subcuenca Tuxcacuesco", "description": "Tuxcacuesco" }, "geometry": { "type": "MultiPolygon", "coordinates": [ [ [ [ -104.174503, 20.007639, 0.0 ], [ -104.18802, 20.018331, 0.0 ], [ -104.164473, 20.02033, 0.0 ], [ -104.126659, 19.988376, 0.0 ], [ -104.134237, 19.973118, 0.0 ], [ -104.103273, 19.971234, 0.0 ], [ -104.10005, 19.979854, 0.0 ], [ -104.089737, 19.980079, 0.0 ], [ -104.075885, 19.965743, 0.0 ], [ -104.04746, 19.957727, 0.0 ], [ -104.024391, 19.964742, 0.0 ], [ -104.001784, 19.970761, 0.0 ], [ -103.99211, 19.976495, 0.0 ], [ -103.979608, 19.972711, 0.0 ], [ -103.963048, 19.97504, 0.0 ], [ -103.957393, 19.958539, 0.0 ], [ -103.934362, 19.961512, 0.0 ], [ -103.916667, 19.981956, 0.0 ], [ -103.897052, 19.991835, 0.0 ], [ -103.895196, 19.96732, 0.0 ], [ -103.891256, 19.951275, 0.0 ], [ -103.903012, 19.929448, 0.0 ], [ -103.892187, 19.915441, 0.0 ], [ -103.89872, 19.887929, 0.0 ], [ -103.87909, 19.883021, 0.0 ], [ -103.866369, 19.866234, 0.0 ], [ -103.872293, 19.846659, 0.0 ], [ -103.875388, 19.830461, 0.0 ], [ -103.879457, 19.815506, 0.0 ], [ -103.851484, 19.827869, 0.0 ], [ -103.839996, 19.814677, 0.0 ], [ -103.827327, 19.82005, 0.0 ], [ -103.806846, 19.808336, 0.0 ], [ -103.799338, 19.829535, 0.0 ], [ -103.780379, 19.821611, 0.0 ], [ -103.752688, 19.813789, 0.0 ], [ -103.737495, 19.81887, 0.0 ], [ -103.724478, 19.831597, 0.0 ], [ -103.713449, 19.809403, 0.0 ], [ -103.701426, 19.80135, 0.0 ], [ -103.690043, 19.81365, 0.0 ], [ -103.671204, 19.802479, 0.0 ], [ -103.645093, 19.794058, 0.0 ], [ -103.624065, 19.769454, 0.0 ], [ -103.620108, 19.755557, 0.0 ], [ -103.624499, 19.736519, 0.0 ], [ -103.622632, 19.720636, 0.0 ], [ -103.637688, 19.701148, 0.0 ], [ -103.638725, 19.700613, 0.0 ], [ -103.622931, 19.680832, 0.0 ], [ -103.621981, 19.665147, 0.0 ], [ -103.630165, 19.648633, 0.0 ], [ -103.621417, 19.629675, 0.0 ], [ -103.626524, 19.617871, 0.0 ], [ -103.621713, 19.602959, 0.0 ], [ -103.61695, 19.590484, 0.0 ], [ -103.626714, 19.581964, 0.0 ], [ -103.648152, 19.589141, 0.0 ], [ -103.655867681434401, 19.585647818629401, 0.0 ], [ -103.6686, 19.599193, 0.0 ], [ -103.678869, 19.619626, 0.0 ], [ -103.679708987589038, 19.621380052691496, 0.0 ], [ -103.688363, 19.640434, 0.0 ], [ -103.698989, 19.638663, 0.0 ], [ -103.717532188391431, 19.647446461339907, 0.0 ], [ -103.726384, 19.651728, 0.0 ], [ -103.749887927275708, 19.649877406111159, 0.0 ], [ -103.759649, 19.649231, 0.0 ], [ -103.76450397141879, 19.652384964577543, 0.0 ], [ -103.777392, 19.661184, 0.0 ], [ -103.792869, 19.664398, 0.0 ], [ -103.792995871496458, 19.66437369811063, 0.0 ], [ -103.793367, 19.664451, 0.0 ], [ -103.814297, 19.660424, 0.0 ], [ -103.815771755689312, 19.660009451226546, 0.0 ], [ -103.815988, 19.659968, 0.0 ], [ -103.82611, 19.657103, 0.0 ], [ -103.846616934564722, 19.653446594948925, 0.0 ], [ -103.860527, 19.651256, 0.0 ], [ -103.869166624598037, 19.651708109118506, 0.0 ], [ -103.874088, 19.652004, 0.0 ], [ -103.877551333274823, 19.650744888643541, 0.0 ], [ -103.891214, 19.646003, 0.0 ], [ -103.898496677123291, 19.640994896936274, 0.0 ], [ -103.902039, 19.638701, 0.0 ], [ -103.931662, 19.637969, 0.0 ], [ -103.934134, 19.627068, 0.0 ], [ -103.938966909974013, 19.624731033812221, 0.0 ], [ -103.950864, 19.619734, 0.0 ], [ -103.97503626632674, 19.607478050407039, 0.0 ], [ -103.98441110592546, 19.61057506560531, 0.0 ], [ -103.987706, 19.611671, 0.0 ], [ -103.987719114979257, 19.611667736547712, 0.0 ], [ -103.988059, 19.61178, 0.0 ], [ -104.007425, 19.606763, 0.0 ], [ -104.007311, 19.626505, 0.0 ], [ -104.017559, 19.632919, 0.0 ], [ -104.01395, 19.648715, 0.0 ], [ -104.020735, 19.658133, 0.0 ], [ -104.018905, 19.669274, 0.0 ], [ -104.023783, 19.678774, 0.0 ], [ -104.035391, 19.686123, 0.0 ], [ -104.045596, 19.685919, 0.0 ], [ -104.058895, 19.68159, 0.0 ], [ -104.066902, 19.677905, 0.0 ], [ -104.073102, 19.685342, 0.0 ], [ -104.078441, 19.691319, 0.0 ], [ -104.070206, 19.69851, 0.0 ], [ -104.07012, 19.707132, 0.0 ], [ -104.075512, 19.712054, 0.0 ], [ -104.093532, 19.711648, 0.0 ], [ -104.108616, 19.713366, 0.0 ], [ -104.124036, 19.721172, 0.0 ], [ -104.119641, 19.727896, 0.0 ], [ -104.116702, 19.735571, 0.0 ], [ -104.109856, 19.746795, 0.0 ], [ -104.101746, 19.750444, 0.0 ], [ -104.100609, 19.769232, 0.0 ], [ -104.10954, 19.767738, 0.0 ], [ -104.11875, 19.760758, 0.0 ], [ -104.132394, 19.757055, 0.0 ], [ -104.141695, 19.766455, 0.0 ], [ -104.142353, 19.781013, 0.0 ], [ -104.157935, 19.791951, 0.0 ], [ -104.161147, 19.79888, 0.0 ], [ -104.168589, 19.809957, 0.0 ], [ -104.168856, 19.818593, 0.0 ], [ -104.178059, 19.827611, 0.0 ], [ -104.170979, 19.843118, 0.0 ], [ -104.165698, 19.84929, 0.0 ], [ -104.167624, 19.858905, 0.0 ], [ -104.176053, 19.864719, 0.0 ], [ -104.187676, 19.87806, 0.0 ], [ -104.181837, 19.886722, 0.0 ], [ -104.187729, 19.89719, 0.0 ], [ -104.180157, 19.904393, 0.0 ], [ -104.174511, 19.915579, 0.0 ], [ -104.179941, 19.923002, 0.0 ], [ -104.180648, 19.932535, 0.0 ], [ -104.168075, 19.944357, 0.0 ], [ -104.153468, 19.93962, 0.0 ], [ -104.149051, 19.947666, 0.0 ], [ -104.155837, 19.956609, 0.0 ], [ -104.162582, 19.963557, 0.0 ], [ -104.160816, 19.977185, 0.0 ], [ -104.147168, 19.985543, 0.0 ], [ -104.156967, 19.993378, 0.0 ], [ -104.16447, 19.990743, 0.0 ], [ -104.174503, 20.007639, 0.0 ] ] ] ] } }
]
}
